[
    {
        "Altitude(m)": 707176.9174306837,
        "Argument of Periapsis(deg)": 0.0,
        "Eccentricity": 0.0,
        "Inclination(deg)": 45.0,
        "Latitude(deg)": 44.572778387129404,
        "Longitude(deg)": -31.474599176615964,
        "Mean Anomaly(deg)": -278.1818,
        "RAAN(deg)": 350.0,
        "Satellite Name": "Constellation 1 1545",
        "Satellite Number": 1545,
        "Semi-Major Axis(m)": 7083131.272910544,
        "Time(s)": 0
    },
    {
        "Altitude(m)": 707178.85451436,
        "Argument of Periapsis(deg)": 5.994800624540561e-05,
        "Eccentricity": 0.0,
        "Inclination(deg)": 45.0,
        "Latitude(deg)": 44.58132692798724,
        "Longitude(deg)": -31.39451261451439,
        "Mean Anomaly(deg)": -278.12109885975013,
        "RAAN(deg)": 349.9999434108344,
        "Satellite Name": "Constellation 1 1545",
        "Satellite Number": 1545,
        "Semi-Major Axis(m)": 7083131.272910544,
        "Time(s)": 1
    },
    {
        "Altitude(m)": 707180.7777188319,
        "Argument of Periapsis(deg)": 0.00011989601249081122,
        "Eccentricity": 0.0,
        "Inclination(deg)": 45.0,
        "Latitude(deg)": 44.5898133966467,
        "Longitude(deg)": -31.31440148066943,
        "Mean Anomaly(deg)": -278.0603977195002,
        "RAAN(deg)": 349.9998868216689,
        "Satellite Name": "Constellation 1 1545",
        "Satellite Number": 1545,
        "Semi-Major Axis(m)": 7083131.272910544,
        "Time(s)": 2
    },
    {
        "Altitude(m)": 707182.6870328567,
        "Argument of Periapsis(deg)": 0.00017984401873621686,
        "Eccentricity": 0.0,
        "Inclination(deg)": 45.0,
        "Latitude(deg)": 44.59823775699722,
        "Longitude(deg)": -31.23426593985351,
        "Mean Anomaly(deg)": -277.99969657925027,
        "RAAN(deg)": 349.9998302325033,
        "Satellite Name": "Constellation 1 1545",
        "Satellite Number": 1545,
        "Semi-Major Axis(m)": 7083131.272910544,
        "Time(s)": 3
    },
    {
        "Altitude(m)": 707184.5824452752,
        "Argument of Periapsis(deg)": 0.00023979202498162244,
        "Eccentricity": 0.0,
        "Inclination(deg)": 45.0,
        "Latitude(deg)": 44.60659997316641,
        "Longitude(deg)": -31.154106157247607,
        "Mean Anomaly(deg)": -277.9389954390004,
        "RAAN(deg)": 349.9997736433377,
        "Satellite Name": "Constellation 1 1545",
        "Satellite Number": 1545,
        "Semi-Major Axis(m)": 7083131.272910544,
        "Time(s)": 4
    },
    {
        "Altitude(m)": 707186.4639450056,
        "Argument of Periapsis(deg)": 0.00029974003122702807,
        "Eccentricity": 0.0,
        "Inclination(deg)": 45.0,
        "Latitude(deg)": 44.614900009520724,
        "Longitude(deg)": -31.07392229843889,
        "Mean Anomaly(deg)": -277.8782942987505,
        "RAAN(deg)": 349.99971705417215,
        "Satellite Name": "Constellation 1 1545",
        "Satellite Number": 1545,
        "Semi-Major Axis(m)": 7083131.272910544,
        "Time(s)": 5
    },
    {
        "Altitude(m)": 707188.3315210518,
        "Argument of Periapsis(deg)": 0.00035968803747243373,
        "Eccentricity": 0.0,
        "Inclination(deg)": 45.0,
        "Latitude(deg)": 44.62313783066615,
        "Longitude(deg)": -30.993714529418497,
        "Mean Anomaly(deg)": -277.8175931585006,
        "RAAN(deg)": 349.99966046500657,
        "Satellite Name": "Constellation 1 1545",
        "Satellite Number": 1545,
        "Semi-Major Axis(m)": 7083131.272910544,
        "Time(s)": 6
    },
    {
        "Altitude(m)": 707190.1851625011,
        "Argument of Periapsis(deg)": 0.00041963604371783933,
        "Eccentricity": 0.0,
        "Inclination(deg)": 45.0,
        "Latitude(deg)": 44.63131340144873,
        "Longitude(deg)": -30.91348318467629,
        "Mean Anomaly(deg)": -277.75689201825065,
        "RAAN(deg)": 349.99960387584105,
        "Satellite Name": "Constellation 1 1545",
        "Satellite Number": 1545,
        "Semi-Major Axis(m)": 7083131.272910544,
        "Time(s)": 7
    },
    {
        "Altitude(m)": 707192.0248585204,
        "Argument of Periapsis(deg)": 0.0004795840499632449,
        "Eccentricity": 0.0,
        "Inclination(deg)": 45.0,
        "Latitude(deg)": 44.639426686956234,
        "Longitude(deg)": -30.833228094810625,
        "Mean Anomaly(deg)": -277.6961908780008,
        "RAAN(deg)": 349.99954728667547,
        "Satellite Name": "Constellation 1 1545",
        "Satellite Number": 1545,
        "Semi-Major Axis(m)": 7083131.272910544,
        "Time(s)": 8
    },
    {
        "Altitude(m)": 707193.8505983601,
        "Argument of Periapsis(deg)": 0.0005395320562086505,
        "Eccentricity": 0.0,
        "Inclination(deg)": 45.0,
        "Latitude(deg)": 44.647477652517225,
        "Longitude(deg)": -30.752949595107207,
        "Mean Anomaly(deg)": -277.63548973775085,
        "RAAN(deg)": 349.9994906975098,
        "Satellite Name": "Constellation 1 1545",
        "Satellite Number": 1545,
        "Semi-Major Axis(m)": 7083131.272910544,
        "Time(s)": 9
    },
    {
        "Altitude(m)": 707195.6623713535,
        "Argument of Periapsis(deg)": 0.0005994800624540561,
        "Eccentricity": 0.0,
        "Inclination(deg)": 45.0,
        "Latitude(deg)": 44.65546626370289,
        "Longitude(deg)": -30.672647853149737,
        "Mean Anomaly(deg)": -277.57478859750097,
        "RAAN(deg)": 349.9994341083443,
        "Satellite Name": "Constellation 1 1545",
        "Satellite Number": 1545,
        "Semi-Major Axis(m)": 7083131.272910544,
        "Time(s)": 10
    },
    {
        "Altitude(m)": 707197.4601669091,
        "Argument of Periapsis(deg)": 0.0006594280686994618,
        "Eccentricity": 0.0,
        "Inclination(deg)": 45.0,
        "Latitude(deg)": 44.6633924863275,
        "Longitude(deg)": -30.59232303691368,
        "Mean Anomaly(deg)": -277.5140874572511,
        "RAAN(deg)": 349.9993775191787,
        "Satellite Name": "Constellation 1 1545",
        "Satellite Number": 1545,
        "Semi-Major Axis(m)": 7083131.272910544,
        "Time(s)": 11
    },
    {
        "Altitude(m)": 707199.2439745304,
        "Argument of Periapsis(deg)": 0.0007193760749448675,
        "Eccentricity": 0.0,
        "Inclination(deg)": 45.0,
        "Latitude(deg)": 44.67125628644887,
        "Longitude(deg)": -30.51197531476437,
        "Mean Anomaly(deg)": -277.4533863170012,
        "RAAN(deg)": 349.9993209300132,
        "Satellite Name": "Constellation 1 1545",
        "Satellite Number": 1545,
        "Semi-Major Axis(m)": 7083131.272910544,
        "Time(s)": 12
    },
    {
        "Altitude(m)": 707201.0137837962,
        "Argument of Periapsis(deg)": 0.000779324081190273,
        "Eccentricity": 0.0,
        "Inclination(deg)": 45.0,
        "Latitude(deg)": 44.67905763036931,
        "Longitude(deg)": -30.43160485545419,
        "Mean Anomaly(deg)": -277.39268517675134,
        "RAAN(deg)": 349.9992643408476,
        "Satellite Name": "Constellation 1 1545",
        "Satellite Number": 1545,
        "Semi-Major Axis(m)": 7083131.272910544,
        "Time(s)": 13
    },
    {
        "Altitude(m)": 707202.7695843682,
        "Argument of Periapsis(deg)": 0.0008392720874356787,
        "Eccentricity": 0.0,
        "Inclination(deg)": 45.0,
        "Latitude(deg)": 44.68679648463606,
        "Longitude(deg)": -30.351211828120363,
        "Mean Anomaly(deg)": -277.3319840365014,
        "RAAN(deg)": 349.999207751682,
        "Satellite Name": "Constellation 1 1545",
        "Satellite Number": 1545,
        "Semi-Major Axis(m)": 7083131.272910544,
        "Time(s)": 14
    },
    {
        "Altitude(m)": 707204.5113659911,
        "Argument of Periapsis(deg)": 0.0008992200936810842,
        "Eccentricity": 0.0,
        "Inclination(deg)": 45.0,
        "Latitude(deg)": 44.694472816041845,
        "Longitude(deg)": -30.270796570379066,
        "Mean Anomaly(deg)": -277.2712828962515,
        "RAAN(deg)": 349.99915116251645,
        "Satellite Name": "Constellation 1 1545",
        "Satellite Number": 1545,
        "Semi-Major Axis(m)": 7083131.272910544,
        "Time(s)": 15
    },
    {
        "Altitude(m)": 707206.2391184958,
        "Argument of Periapsis(deg)": 0.0009591680999264898,
        "Eccentricity": 0.0,
        "Inclination(deg)": 45.0,
        "Latitude(deg)": 44.70208659162651,
        "Longitude(deg)": -30.190358915935963,
        "Mean Anomaly(deg)": -277.2105817560016,
        "RAAN(deg)": 349.9990945733509,
        "Satellite Name": "Constellation 1 1545",
        "Satellite Number": 1545,
        "Semi-Major Axis(m)": 7083131.272910544,
        "Time(s)": 16
    },
    {
        "Altitude(m)": 707207.9528317807,
        "Argument of Periapsis(deg)": 0.0010191161061718953,
        "Eccentricity": 0.0,
        "Inclination(deg)": 45.0,
        "Latitude(deg)": 44.70963777867608,
        "Longitude(deg)": -30.109899203164744,
        "Mean Anomaly(deg)": -277.14988061575167,
        "RAAN(deg)": 349.99903798418535,
        "Satellite Name": "Constellation 1 1545",
        "Satellite Number": 1545,
        "Semi-Major Axis(m)": 7083131.272910544,
        "Time(s)": 17
    },
    {
        "Altitude(m)": 707209.6524958543,
        "Argument of Periapsis(deg)": 0.001079064112417301,
        "Eccentricity": 0.0,
        "Inclination(deg)": 45.0,
        "Latitude(deg)": 44.7171263447246,
        "Longitude(deg)": -30.029417602716627,
        "Mean Anomaly(deg)": -277.0891794755018,
        "RAAN(deg)": 349.99898139501977,
        "Satellite Name": "Constellation 1 1545",
        "Satellite Number": 1545,
        "Semi-Major Axis(m)": 7083131.272910544,
        "Time(s)": 18
    }
]